$$SOE
2461302.500000000, A.D. 2026-Sep-19 00:00:00.0000, 1.819177166355207E+08, -4.136810217810753E+08, 1.283827562146695E+08,
2461309.500000000, A.D. 2026-Sep-26 00:00:00.0000, 1.912723383646108E+08, -4.105522517376350E+08, 1.301574913110847E+08,
2461316.500000000, A.D. 2026-Oct-03 00:00:00.0000, 2.005382622343734E+08, -4.072330752102886E+08, 1.318718518326112E+08,
2461323.500000000, A.D. 2026-Oct-10 00:00:00.0000, 2.097120408771998E+08, -4.037267626737126E+08, 1.335256023076819E+08,
2461330.500000000, A.D. 2026-Oct-17 00:00:00.0000, 2.187903303827085E+08, -4.000366079974855E+08, 1.351185382215508E+08,
2461337.500000000, A.D. 2026-Oct-24 00:00:00.0000, 2.277698883745668E+08, -3.961659256774544E+08, 1.366504849845591E+08,
2461344.500000000, A.D. 2026-Oct-31 00:00:00.0000, 2.366475721489505E+08, -3.921180483849955E+08, 1.381212969024146E+08,
2461351.500000000, A.D. 2026-Nov-07 00:00:00.0000, 2.454203372206954E+08, -3.878963247545810E+08, 1.395308561241672E+08,
2461358.500000000, A.D. 2026-Nov-14 00:00:00.0000, 2.540852364845514E+08, -3.835041165173671E+08, 1.408790716230695E+08,
2461365.500000000, A.D. 2026-Nov-21 00:00:00.0000, 2.626394181852116E+08, -3.789447942943749E+08, 1.421658784331721E+08,
2461372.500000000, A.D. 2026-Nov-28 00:00:00.0000, 2.710801217023798E+08, -3.742217350519364E+08, 1.433912369874963E+08,
2461379.500000000, A.D. 2026-Dec-05 00:00:00.0000, 2.794046747749503E+08, -3.693383218696156E+08, 1.445551321719559E+08,
2461386.500000000, A.D. 2026-Dec-12 00:00:00.0000, 2.876104923341688E+08, -3.642979429042984E+08, 1.456575723345615E+08,
2461393.500000000, A.D. 2026-Dec-19 00:00:00.0000, 2.956950750628436E+08, -3.591039895393761E+08, 1.466985884241326E+08,
2461400.500000000, A.D. 2026-Dec-26 00:00:00.0000, 3.036560075417992E+08, -3.537598545824018E+08, 1.476782332009510E+08,
2461407.500000000, A.D. 2027-Jan-02 00:00:00.0000, 3.114909562623775E+08, -3.482689306975069E+08, 1.485965804785535E+08,
2461414.500000000, A.D. 2027-Jan-09 00:00:00.0000, 3.191976676242152E+08, -3.426346090479312E+08, 1.494537243875453E+08,
2461421.500000000, A.D. 2027-Jan-16 00:00:00.0000, 3.267739659550953E+08, -3.368602781354999E+08, 1.502497786587023E+08,
2461428.500000000, A.D. 2027-Jan-23 00:00:00.0000, 3.342177515996130E+08, -3.309493228722829E+08, 1.509848759174347E+08,
2461435.500000000, A.D. 2027-Jan-30 00:00:00.0000, 3.415269992648316E+08, -3.249051239276503E+08, 1.516591669678523E+08,
2461442.500000000, A.D. 2027-Feb-06 00:00:00.0000, 3.486997570483207E+08, -3.187310570062362E+08, 1.522728200548424E+08,
2461449.500000000, A.D. 2027-Feb-13 00:00:00.0000, 3.557341456890804E+08, -3.124304908334391E+08, 1.528260202461061E+08,
2461456.500000000, A.D. 2027-Feb-20 00:00:00.0000, 3.626283556776875E+08, -3.060067846364391E+08, 1.533189690862224E+08,
2461463.500000000, A.D. 2027-Feb-27 00:00:00.0000, 3.693806436211354E+08, -2.994632883306612E+08, 1.537518841310287E+08,
2461470.500000000, A.D. 2027-Mar-06 00:00:00.0000, 3.759893308807402E+08, -2.928033434846223E+08, 1.541249982414598E+08,
2461477.500000000, A.D. 2027-Mar-13 00:00:00.0000, 3.824528028840490E+08, -2.860302830098854E+08, 1.544385589506266E+08,
2461484.500000000, A.D. 2027-Mar-20 00:00:00.0000, 3.887695079824034E+08, -2.791474304075486E+08, 1.546928279392223E+08,
2461491.500000000, A.D. 2027-Mar-27 00:00:00.0000, 3.949379560569730E+08, -2.721580991171210E+08, 1.548880805554836E+08,
2461498.500000000, A.D. 2027-Apr-03 00:00:00.0000, 4.009567170767989E+08, -2.650655920125587E+08, 1.550246053568014E+08,
2461505.500000000, A.D. 2027-Apr-10 00:00:00.0000, 4.068244196704997E+08, -2.578732010196682E+08, 1.551027036688401E+08,
2461512.500000000, A.D. 2027-Apr-17 00:00:00.0000, 4.125397497337483E+08, -2.505842068666575E+08, 1.551226891584222E+08,
2461519.500000000, A.D. 2027-Apr-24 00:00:00.0000, 4.181014491512569E+08, -2.432018790274389E+08, 1.550848874069153E+08,
2461526.500000000, A.D. 2027-May-01 00:00:00.0000, 4.235083149321305E+08, -2.357294758268256E+08, 1.549896354576135E+08,
2461533.500000000, A.D. 2027-May-08 00:00:00.0000, 4.287591990656909E+08, -2.281702439556539E+08, 1.548372813689305E+08,
2461540.500000000, A.D. 2027-May-15 00:00:00.0000, 4.338530076015097E+08, -2.205274164392718E+08, 1.546281839882860E+08,
2461547.500000000, A.D. 2027-May-22 00:00:00.0000, 4.387886973903033E+08, -2.128042116488156E+08, 1.543627128782465E+08,
2461554.500000000, A.D. 2027-May-29 00:00:00.0000, 4.435652738413584E+08, -2.050038348210770E+08, 1.540412479665793E+08,
2461561.500000000, A.D. 2027-Jun-05 00:00:00.0000, 4.481817905815097E+08, -1.971294789525273E+08, 1.536641790947921E+08,
2461568.500000000, A.D. 2027-Jun-12 00:00:00.0000, 4.526373490086968E+08, -1.891843246338609E+08, 1.532319056848825E+08,
2461575.500000000, A.D. 2027-Jun-19 00:00:00.0000, 4.569310974091942E+08, -1.811715397587114E+08, 1.527448364784158E+08,
2461582.500000000, A.D. 2027-Jun-26 00:00:00.0000, 4.610622299176289E+08, -1.730942793664326E+08, 1.522033893008108E+08,
2461589.500000000, A.D. 2027-Jul-03 00:00:00.0000, 4.650299854514683E+08, -1.649556856090661E+08, 1.516079908391215E+08,
2461596.500000000, A.D. 2027-Jul-10 00:00:00.0000, 4.688336466563759E+08, -1.567588878321438E+08, 1.509590764303741E+08,
2461603.500000000, A.D. 2027-Jul-17 00:00:00.0000, 4.724725388983260E+08, -1.485070028066395E+08, 1.502570898536922E+08,
2461610.500000000, A.D. 2027-Jul-24 00:00:00.0000, 4.759460294582766E+08, -1.402031351733972E+08, 1.495024831063505E+08,
2461617.500000000, A.D. 2027-Jul-31 00:00:00.0000, 4.792535273399805E+08, -1.318503778627913E+08, 1.486957161447106E+08,
2461624.500000000, A.D. 2027-Aug-07 00:00:00.0000, 4.823944834898004E+08, -1.234518113357802E+08, 1.478372567022648E+08,
2461631.500000000, A.D. 2027-Aug-14 00:00:00.0000, 4.853683891279452E+08, -1.150105018982510E+08, 1.469275803755243E+08,
2461638.500000000, A.D. 2027-Aug-21 00:00:00.0000, 4.881747728093123E+08, -1.065295024525327E+08, 1.459671706461069E+08,
2461645.500000000, A.D. 2027-Aug-28 00:00:00.0000, 4.908131996437052E+08, -9.801185448192930E+07, 1.449565186216782E+08,
2461652.500000000, A.D. 2027-Sep-04 00:00:00.0000, 4.932832714933553E+08, -8.946058876435006E+07, 1.438961228077126E+08,
2461659.500000000, A.D. 2027-Sep-11 00:00:00.0000, 4.955846267520618E+08, -8.087872547501907E+07, 1.427864889834557E+08,
2461666.500000000, A.D. 2027-Sep-18 00:00:00.0000, 4.977169398387046E+08, -7.226927432722402E+07, 1.416281301161346E+08,
2461673.500000000, A.D. 2027-Sep-25 00:00:00.0000, 4.996799206334941E+08, -6.363523482732110E+07, 1.404215662854177E+08,
2461680.500000000, A.D. 2027-Oct-02 00:00:00.0000, 5.014733139316238E+08, -5.497959661485102E+07, 1.391673246129037E+08,
2461687.500000000, A.D. 2027-Oct-09 00:00:00.0000, 5.030968989366208E+08, -4.630533989066499E+07, 1.378659391937715E+08,
2461694.500000000, A.D. 2027-Oct-16 00:00:00.0000, 5.045504888565909E+08, -3.761543598651780E+07, 1.365179510200038E+08,
2461701.500000000, A.D. 2027-Oct-23 00:00:00.0000, 5.058339308631476E+08, -2.891284808068325E+07, 1.351239078705164E+08,
2461708.500000000, A.D. 2027-Oct-30 00:00:00.0000, 5.069471067872328E+08, -2.020053144801407E+07, 1.336843641831494E+08,
2461715.500000000, A.D. 2027-Nov-06 00:00:00.0000, 5.078899333882366E+08, -1.148143211451583E+07, 1.321998811072121E+08,
2461722.500000000, A.D. 2027-Nov-13 00:00:00.0000, 5.086623602120827E+08, -2.758485991515584E+06, 1.306710267495359E+08,
2461729.500000000, A.D. 2027-Nov-20 00:00:00.0000, 5.092643679405468E+08, 5.965379324630007E+06, 1.290983761692873E+08,
2461736.500000000, A.D. 2027-Nov-27 00:00:00.0000, 5.096959688484720E+08, 1.468724305228743E+07, 1.274825112148055E+08,
2461743.500000000, A.D. 2027-Dec-04 00:00:00.0000, 5.099572073448854E+08, 2.340419093880081E+07, 1.258240204624826E+08,
2461750.500000000, A.D. 2027-Dec-11 00:00:00.0000, 5.100481600475378E+08, 3.211331522608576E+07, 1.241234992294252E+08,
2461757.500000000, A.D. 2027-Dec-18 00:00:00.0000, 5.099689356658593E+08, 4.081171452898235E+07, 1.223815496069263E+08,
2461764.500000000, A.D. 2027-Dec-25 00:00:00.0000, 5.097196748440850E+08, 4.949649362460000E+07, 1.205987805004307E+08,
2461771.500000000, A.D. 2028-Jan-01 00:00:00.0000, 5.093005500054402E+08, 5.816476316764378E+07, 1.187758076730377E+08,
$$EOE